     2.10           NAVIGATION DATA                         RINEX VERSION / TYPE
SPIDER V4,0,0,3554                      2015 04 15 03:35    PGM / RUN BY / DATE 
   1.4901D-08 -7.4506D-09 -5.9605D-08  1.1921D-07           ION ALPHA           
   1.2493D+05 -1.3107D+05  0.0000D+00 -6.5536D+04           ION BETA            
    1.862645149231D-09 6.217248937901D-15   319488     1829 DELTA-UTC: A0,A1,T,W
    16                                                      LEAP SECONDS        
                                                            END OF HEADER       
13 15 01 25 17 59 44.0-8.212774991989D-05-3.524291969370D-12 0.000000000000D+00
    4.000000000000D+00 5.200000000000D+01 4.665551500693D-09 4.497148728639D-01
    2.669170498848D-06 5.352799547836D-03 5.280598998070D-06 5.153684459686D+03
    6.478400000000D+04-2.421438694000D-08 2.402522068745D+00-8.009374141693D-08
    9.751157918868D-01 2.858437500000D+02 2.068650647603D+00-8.344633428692D-09
    4.893060956412D-11 1.000000000000D+00 1.829000000000D+03 0.000000000000D+00
    2.000000000000D+00 0.000000000000D+00-1.164153218269D-08 4.000000000000D+00
    6.478400000000D+04 0.000000000000D+00
15 15 01 25 18 00  0.0-2.284320071340D-04-2.273736754432D-12 0.000000000000D+00
    7.200000000000D+01 7.037500000000D+01 5.568089100905D-09 1.646407231630D+00
    3.851950168610D-06 7.039477583021D-03 5.805864930153D-06 5.153581073761D+03
    6.480000000000D+04-2.793967723846D-08 2.248674926771D+00 1.043081283569D-07
    9.341397739397D-01 2.549062500000D+02 3.655894644286D-01-8.742864210376D-09
    6.321691781164D-11 1.000000000000D+00 1.829000000000D+03 0.000000000000D+00
    2.000000000000D+00 0.000000000000D+00-1.071020960808D-08 7.200000000000D+01
    6.480000000000D+04 0.000000000000D+00
28 15 01 25 18 00  0.0 4.149526357651D-04 2.614797267597D-12 0.000000000000D+00
    6.400000000000D+01 1.896875000000D+01 3.530504111282D-09-3.011158672834D+00
    9.182840585709D-07 1.973180228379D-02 1.030229032040D-05 5.153693264008D+03
    6.480000000000D+04 1.955777406693D-07-1.828078241608D+00-2.793967723846D-08
    9.881331324655D-01 1.913125000000D+02-1.676667441940D+00-7.320662298582D-09
    2.003654880900D-10 1.000000000000D+00 1.829000000000D+03 0.000000000000D+00
    2.000000000000D+00 0.000000000000D+00-1.117587089539D-08 6.400000000000D+01
    6.480000000000D+04 0.000000000000D+00
24 15 01 25 18 00  0.0-4.236074164510D-05-5.684341886081D-13 0.000000000000D+00
    6.600000000000D+01-3.915625000000D+01 4.855559510020D-09 5.735859046810D-01
   -1.978129148483D-06 2.956816693768D-03 6.008893251419D-06 5.153687646866D+03
    6.480000000000D+04 4.097819328308D-08-2.957512150241D+00 6.891787052155D-08
    9.549772060167D-01 2.561250000000D+02 2.574444596408D-01-8.425708131199D-09
   -4.807342857127D-10 1.000000000000D+00 1.829000000000D+03 0.000000000000D+00
    2.000000000000D+00 0.000000000000D+00 2.328306436539D-09 6.600000000000D+01
    6.480000000000D+04 0.000000000000D+00
17 15 01 25 18 00  0.0-1.520854420960D-04-2.387423592154D-12 0.000000000000D+00
    3.800000000000D+01-9.687500000000D-01 4.413398091430D-09 2.483683912364D+00
   -6.705522537231D-08 1.002582628280D-02 5.114823579788D-06 5.153703565598D+03
    6.480000000000D+04 1.024454832077D-07-8.047915285575D-01-1.415610313416D-07
    9.711983503553D-01 2.850312500000D+02-2.045915320700D+00-8.042834842570D-09
    3.296565798117D-10 1.000000000000D+00 1.829000000000D+03 0.000000000000D+00
    2.000000000000D+00 0.000000000000D+00-1.071020960808D-08 3.800000000000D+01
    6.480000000000D+04 0.000000000000D+00
18 15 01 25 18 00  0.0 3.748396411538D-04 2.728484105319D-12 0.000000000000D+00
    9.700000000000D+01 1.918750000000D+01 5.159143334765D-09-2.310047582023D+00
    9.462237358093D-07 1.562259532511D-02 1.158379018307D-05 5.153761587143D+03
    6.480000000000D+04 1.974403858185D-07 1.228730561674D+00-2.980232238770D-08
    9.250133536505D-01 1.316875000000D+02-1.994771118018D+00-8.069621415530D-09
    1.982225356079D-10 1.000000000000D+00 1.829000000000D+03 0.000000000000D+00
    2.000000000000D+00 0.000000000000D+00-1.117587089539D-08 9.700000000000D+01
    6.480000000000D+04 0.000000000000D+00
12 15 01 25 18 00  0.0 2.641906030476D-04 3.069544618484D-12 0.000000000000D+00
    1.000000000000D+01 2.593750000000D+00 3.734084152995D-09-7.362205029734D-01
    9.313225746155D-08 5.199314560741D-03 1.084245741367D-05 5.153749895096D+03
    6.480000000000D+04 1.341104507446D-07-1.852221622774D+00 6.705522537231D-08
    9.889934965317D-01 1.848125000000D+02 5.029640127786D-01-7.768180765311D-09
    1.110760580736D-10 1.000000000000D+00 1.829000000000D+03 0.000000000000D+00
    2.000000000000D+00 0.000000000000D+00-1.257285475731D-08 1.000000000000D+01
    6.480000000000D+04 0.000000000000D+00
17 15 01 25 20 00  0.0-1.521026715636D-04-2.387423592154D-12 0.000000000000D+00
    5.200000000000D+01 1.218750000000D+00 4.398397646099D-09-2.749342601429D+00
    1.098960638046D-07 1.002548006363D-02 5.215406417847D-06 5.153704217911D+03
    7.200000000000D+04 8.754432201385D-08-8.048490431818D-01-5.587935447693D-08
    9.712007246713D-01 2.839375000000D+02-2.045912615764D+00-8.002476015179D-09
    3.139416504538D-10 1.000000000000D+00 1.829000000000D+03 0.000000000000D+00
    2.000000000000D+00 0.000000000000D+00-1.071020960808D-08 5.200000000000D+01
    7.200000000000D+04 0.000000000000D+00
 5 15 01 25 20 00  0.0-2.879579551518D-04 5.229594535194D-12 0.000000000000D+00
    7.700000000000D+01 3.337500000000D+01 4.828058397521D-09-2.009760248341D+00
    1.445412635803D-06 4.039236810058D-03 1.120939850807D-05 5.153763217926D+03
    7.200000000000D+04 4.656612873077D-08 1.239206128904D+00-6.146728992462D-08
    9.464385525646D-01 1.549062500000D+02 4.239161516150D-01-8.100694337543D-09
    1.439345725940D-10 1.000000000000D+00 1.829000000000D+03 0.000000000000D+00
    2.000000000000D+00 0.000000000000D+00-1.071020960808D-08 7.700000000000D+01
    7.200000000000D+04 0.000000000000D+00
12 15 01 25 20 00  0.0 2.642124891281D-04 3.069544618484D-12 0.000000000000D+00
    1.100000000000D+01 1.262500000000D+01 3.715869167920D-09 3.139016764991D-01
    6.090849637985D-07 5.200810031965D-03 1.048669219017D-05 5.153752655029D+03
    7.200000000000D+04 4.470348358154D-08-1.852277681795D+00 1.266598701477D-07
    9.889941329011D-01 1.907187500000D+02 5.029700897403D-01-7.791038925120D-09
    9.107522375151D-11 1.000000000000D+00 1.829000000000D+03 0.000000000000D+00
    2.000000000000D+00 0.000000000000D+00-1.257285475731D-08 1.100000000000D+01
    7.200000000000D+04 0.000000000000D+00
13 15 01 25 20 00  0.0-8.215336129069D-05-3.524291969370D-12 0.000000000000D+00
    1.600000000000D+01 5.056250000000D+01 4.584476798186D-09 1.502181690160D+00
    2.557411789894D-06 5.353036918677D-03 5.103647708893D-06 5.153685064316D+03
    7.200000000000D+04 1.471489667892D-07 2.402462345114D+00-7.264316082001D-08
    9.751168978528D-01 2.878437500000D+02 2.068692437321D+00-8.181411992325D-09
    4.928776831115D-11 1.000000000000D+00 1.829000000000D+03 0.000000000000D+00
    2.000000000000D+00 0.000000000000D+00-1.164153218269D-08 1.600000000000D+01
    7.200000000000D+04 0.000000000000D+00
15 15 01 25 20 00  0.0-2.284483052790D-04-2.273736754432D-12 0.000000000000D+00
    7.500000000000D+01 6.887500000000D+01 5.510586653656D-09 2.696621731473D+00
    3.539025783539D-06 7.038982002996D-03 5.530193448067D-06 5.153581930161D+03
    7.200000000000D+04-7.636845111847D-08 2.248611888168D+00-8.940696716309D-08
    9.341412266174D-01 2.601250000000D+02 3.656204168494D-01-8.575714360859D-09
    1.564350871064D-10 1.000000000000D+00 1.829000000000D+03 0.000000000000D+00
    2.000000000000D+00 0.000000000000D+00-1.071020960808D-08 7.500000000000D+01
    7.200000000000D+04 0.000000000000D+00
18 15 01 25 20 00  0.0 3.748591989279D-04 2.728484105319D-12 0.000000000000D+00
    1.110000000000D+02 3.315625000000D+01 5.322721818857D-09-1.260026228327D+00
    1.946464180946D-06 1.562323863618D-02 1.174956560135D-05 5.153758125305D+03
    7.200000000000D+04 1.993030309677D-07 1.228672773484D+00 3.594905138016D-07
    9.250131795633D-01 1.318125000000D+02-1.994659542719D+00-8.382492033832D-09
    5.357365939762D-11 1.000000000000D+00 1.829000000000D+03 0.000000000000D+00
    2.800000000000D+00 0.000000000000D+00-1.117587089539D-08 1.110000000000D+02
    7.200000000000D+04 0.000000000000D+00
24 15 01 25 20 00  0.0-4.236493259668D-05-5.684341886081D-13 0.000000000000D+00
    6.700000000000D+01-3.396875000000D+01 4.865917002661D-09 1.623351025349D+00
   -1.627951860428D-06 2.957519493066D-03 6.645917892456D-06 5.153690284729D+03
    7.200000000000D+04 3.166496753693D-08-2.957572941802D+00 1.210719347000D-07
    9.549738018063D-01 2.475000000000D+02 2.578533481698D-01-8.422493813498D-09
   -4.496615857441D-10 1.000000000000D+00 1.829000000000D+03 0.000000000000D+00
    2.800000000000D+00 0.000000000000D+00 2.328306436539D-09 6.700000000000D+01
    7.200000000000D+04 0.000000000000D+00
28 15 01 25 20 00  0.0 4.149717278779D-04 2.614797267597D-12 0.000000000000D+00
    6.900000000000D+01 1.965625000000D+01 3.635508560862D-09-1.960993853688D+00
    1.046806573868D-06 1.973307307344D-02 9.674578905106D-06 5.153691436768D+03
    7.200000000000D+04 3.818422555923D-07-1.828130410730D+00 1.862645149231D-07
    9.881339078121D-01 2.053125000000D+02-1.676669007263D+00-7.471382623692D-09
    8.500353892993D-11 1.000000000000D+00 1.829000000000D+03 0.000000000000D+00
    2.000000000000D+00 0.000000000000D+00-1.117587089539D-08 6.900000000000D+01
    7.200000000000D+04 0.000000000000D+00
